H1 CPF  1  HTS 2022  8 30 12  7421 larets           NONE
H2  0304206 5557    27944 2022 08 30  0  0  0 2022 09 04  0  0  0   180 1 1  0 0 0
H5  0.0560 
H9 
10 0 59820  85320.00000  0   -5589369.700   -3850430.187   -1989885.740
10 0 59820  85500.00000  0   -5339518.021   -3335216.851   -3227936.313
10 0 59820  85680.00000  0   -4881452.270   -2708597.112   -4348332.676
10 0 59820  85860.00000  0   -4229489.618   -1998689.933   -5310498.095
10 0 59820  86040.00000  0   -3405636.287   -1236057.420   -6079716.131
10 0 59820  86220.00000  0   -2438798.702    -452400.043   -6628316.936
10 0 59821      0.00000  0   -1363743.762     320739.620   -6936595.754
10 0 59821    180.00000  0    -219852.776    1053212.405   -6993450.719
10 0 59821    360.00000  0     950285.098    1717401.467   -6796743.773
10 0 59821    540.00000  0    2102408.720    2289235.056   -6353388.083
10 0 59821    720.00000  0    3192217.987    2749048.735   -5679149.904
10 0 59821    900.00000  0    4177050.472    3082267.385   -4798157.497
10 0 59821   1080.00000  0    5017552.708    3279886.487   -3742124.877
10 0 59821   1260.00000  0    5679287.880    3338730.976   -2549286.431
10 0 59821   1440.00000  0    6134203.188    3261474.884   -1263063.162
10 0 59821   1620.00000  0    6361885.282    3056411.722      69505.997
10 0 59821   1800.00000  0    6350527.437    2736975.547    1399510.715
10 0 59821   1980.00000  0    6097547.718    2321033.267    2678017.487
10 0 59821   2160.00000  0    5609819.361    1829986.918    3857937.594
10 0 59821   2340.00000  0    4903491.577    1287727.083    4895826.018
10 0 59821   2520.00000  0    4003413.354     719497.541    5753520.249
10 0 59821   2700.00000  0    2942198.213     150731.748    6399557.403
10 0 59821   2880.00000  0    1758974.567    -394078.710    6810311.926
10 0 59821   3060.00000  0     497893.511    -892431.663    6970830.089
10 0 59821   3240.00000  0    -793556.574   -1324741.824    6875345.922
10 0 59821   3420.00000  0   -2066361.080   -1675111.215    6527462.771
10 0 59821   3600.00000  0   -3271848.409   -1931914.051    5940007.291
10 0 59821   3780.00000  0   -4363563.566   -2088180.231    5134573.047
10 0 59821   3960.00000  0   -5299090.935   -2141771.657    4140745.673
10 0 59821   4140.00000  0   -6041740.701   -2095337.556    2995023.371
10 0 59821   4320.00000  0   -6562027.806   -1956051.093    1739475.881
10 0 59821   4500.00000  0   -6838884.354   -1735144.818     420181.811
10 0 59821   4680.00000  0   -6860533.297   -1447261.819    -914503.771
10 0 59821   4860.00000  0   -6624975.797   -1109656.181   -2215767.861
10 0 59821   5040.00000  0   -6140070.770    -741289.704   -3436161.061
10 0 59821   5220.00000  0   -5423212.657    -361874.192   -4531342.158
10 0 59821   5400.00000  0   -4500631.537       9095.450   -5461674.145
10 0 59821   5580.00000  0   -3406360.844     353266.165   -6193611.798
10 0 59821   5760.00000  0   -2180929.894     654266.287   -6700838.987
10 0 59821   5940.00000  0    -869848.252     898426.147   -6965135.859
10 0 59821   6120.00000  0     478063.113    1075356.860   -6976969.409
10 0 59821   6300.00000  0    1812438.539    1178370.121   -6735806.798
10 0 59821   6480.00000  0    3083197.023    1204728.122   -6250154.936
10 0 59821   6660.00000  0    4242384.007    1155715.831   -5537306.662
10 0 59821   6840.00000  0    5245966.206    1036530.397   -4622799.166
10 0 59821   7020.00000  0    6055530.165     855991.089   -3539585.739
10 0 59821   7200.00000  0    6639814.685     626075.873   -2326921.719
10 0 59821   7380.00000  0    6976007.120     361300.203   -1028988.515
10 0 59821   7560.00000  0    7050729.542      77962.698     306712.086
10 0 59821   7740.00000  0    6860647.974    -206705.621    1631127.776
10 0 59821   7920.00000  0    6412666.961    -475446.874    2895515.285
10 0 59821   8100.00000  0    5723683.632    -711887.293    4053304.928
10 0 59821   8280.00000  0    4819914.105    -901402.101    5061873.192
10 0 59821   8460.00000  0    3735834.713   -1031889.395    5884148.237
10 0 59821   8640.00000  0    2512792.055   -1094410.097    6489979.038
10 0 59821   8820.00000  0    1197360.279   -1083667.300    6857223.444
10 0 59821   9000.00000  0    -160483.552    -998305.858    6972529.204
10 0 59821   9180.00000  0   -1509292.381    -841018.581    6831786.061
10 0 59821   9360.00000  0   -2798113.110    -618457.171    6440249.255
10 0 59821   9540.00000  0   -3978419.999    -340950.398    5812342.043
10 0 59821   9720.00000  0   -5005962.373     -22041.114    4971140.840
10 0 59821   9900.00000  0   -5842460.105     322140.044    3947543.617
10 0 59821  10080.00000  0   -6457073.579     673639.728    2779142.547
10 0 59821  10260.00000  0   -6827585.949    1013553.390    1508839.313
10 0 59821  10440.00000  0   -6941244.504    1322960.948     183246.416
10 0 59821  10620.00000  0   -6795213.673    1583879.007   -1149065.047
10 0 59821  10800.00000  0   -6396611.351    1780179.223   -2439390.295
10 0 59821  10980.00000  0   -5762137.319    1898426.836   -3640704.438
10 0 59821  11160.00000  0   -4917313.393    1928596.447   -4709390.515
10 0 59821  11340.00000  0   -3895384.115    1864627.614   -5606800.403
10 0 59821  11520.00000  0   -2735950.123    1704801.036   -6300595.775
10 0 59821  11700.00000  0   -1483404.942    1451923.251   -6765840.119
10 0 59821  11880.00000  0    -185236.219    1113315.688   -6985819.131
10 0 59821  12060.00000  0    1109738.713     700611.444   -6952580.097
10 0 59821  12240.00000  0    2353155.419     229368.227   -6667200.625
10 0 59821  12420.00000  0    3498864.061    -281497.207   -6139772.830
10 0 59821  12600.00000  0    4504614.070    -810436.716   -5389097.656
10 0 59821  12780.00000  0    5333613.823   -1334141.963   -4442094.030
10 0 59821  12960.00000  0    5955920.144   -1828534.462   -3332920.550
10 0 59821  13140.00000  0    6349594.109   -2269836.976   -2101812.679
10 0 59821  13320.00000  0    6501563.350   -2635680.899    -793660.698
10 0 59821  13500.00000  0    6408137.520   -2906194.240     543627.591
10 0 59821  13680.00000  0    6075140.167   -3065012.462    1860917.740
10 0 59821  13860.00000  0    5517636.269   -3100154.475    3109717.780
10 0 59821  14040.00000  0    4759259.247   -3004712.242    4244032.134
10 0 59821  14220.00000  0    3831179.483   -2777313.399    5222108.938
10 0 59821  14400.00000  0    2770772.740   -2422339.349    6008009.226
10 0 59821  14580.00000  0    1620053.054   -1949884.203    6572930.877
10 0 59821  14760.00000  0     423956.332   -1375462.118    6896242.845
10 0 59821  14940.00000  0    -771451.520    -719478.429    6966205.971
10 0 59821  15120.00000  0   -1920767.914      -6485.499    6780367.575
10 0 59821  15300.00000  0   -2980986.534     735748.966    6345630.656
10 0 59821  15480.00000  0   -3913116.146    1477330.354    5677999.382
10 0 59821  15660.00000  0   -4683634.438    2187444.289    4802005.672
10 0 59821  15840.00000  0   -5265725.889    2835640.807    3749824.484
10 0 59821  16020.00000  0   -5640248.113    3393142.914    2560097.503
10 0 59821  16200.00000  0   -5796386.570    3834120.513    1276507.187
10 0 59821  16380.00000  0   -5731967.721    4136871.255     -53854.623
10 0 59821  16560.00000  0   -5453407.515    4284842.076   -1382256.909
10 0 59821  16740.00000  0   -4975303.227    4267442.000   -2660158.976
10 0 59821  16920.00000  0   -4319685.836    4080601.688   -3841020.160
10 0 59821  17100.00000  0   -3514980.104    3727053.165   -4881999.668
10 0 59821  17280.00000  0   -2594739.530    3216327.847   -5745477.986
10 0 59821  17460.00000  0   -1596229.030    2564484.244   -6400355.052
10 0 59821  17640.00000  0    -558914.826    1793581.416   -6823098.086
10 0 59821  17820.00000  0     477074.896     930923.100   -6998512.548
10 0 59821  18000.00000  0    1472462.303       8104.786   -6920236.975
10 0 59821  18180.00000  0    2390269.179    -940112.194   -6590959.277
10 0 59821  18360.00000  0    3197158.396   -1877070.389   -6022345.674
10 0 59821  18540.00000  0    3864632.864   -2765593.541   -5234687.494
10 0 59821  18720.00000  0    4370061.004   -3569441.273   -4256261.566
10 0 59821  18900.00000  0    4697483.218   -4254788.915   -3122395.125
10 0 59821  19080.00000  0    4838166.803   -4791669.361   -1874257.548
10 0 59821  19260.00000  0    4790879.393   -5155315.646    -557398.764
10 0 59821  19440.00000  0    4561850.066   -5327331.306     779922.221
10 0 59821  19620.00000  0    4164410.108   -5296615.880    2088550.587
10 0 59821  19800.00000  0    3618325.076   -5059988.000    3320308.364
10 0 59821  19980.00000  0    2948851.145   -4622470.543    4429833.166
10 0 59821  20160.00000  0    2185568.849   -3997220.559    5376300.063
10 0 59821  20340.00000  0    1361057.983   -3205109.548    6124949.902
10 0 59821  20520.00000  0     509480.626   -2273978.953    6648364.681
10 0 59821  20700.00000  0    -334857.454   -1237612.401    6927444.910
10 0 59821  20880.00000  0   -1138900.596    -134473.047    6952073.230
10 0 59821  21060.00000  0   -1872142.798     993749.984    6721455.554
10 0 59821  21240.00000  0   -2507789.876    2103732.756    6244132.276
10 0 59821  21420.00000  0   -3023744.940    3152190.732    5537664.223
10 0 59821  21600.00000  0   -3403386.284    4097581.571    4628002.752
10 0 59821  21780.00000  0   -3636113.037    4901775.723    3548554.083
10 0 59821  21960.00000  0   -3717633.415    5531627.468    2338958.351
10 0 59821  22140.00000  0   -3649980.748    5960371.073    1043619.931
10 0 59821  22320.00000  0   -3441257.504    6168772.741    -289951.000
10 0 59821  22500.00000  0   -3105121.874    6145986.388   -1612923.171
10 0 59821  22680.00000  0   -2660038.674    5890057.232   -2876982.518
10 0 59821  22860.00000  0   -2128332.597    5408046.707   -4036125.320
10 0 59821  23040.00000  0   -1535108.930    4715792.086   -5048326.526
10 0 59821  23220.00000  0    -907099.525    3837322.197   -5877024.518
99
